{
  "norad_id": 59504,
  "name": "STARLINK-31535",
  "history": [
    {
      "epoch": "2026-03-28T16:52:04.042848",
      "apogee_km": 484.17032397386447,
      "perigee_km": 481.8652504115589,
      "latitude_deg": -14.32974946477437,
      "longitude_deg": -162.12884128000587,
      "semi_major_axis_km": 6861.154787192711,
      "eccentricity": 0.00016798,
      "inclination_deg": 43.0013,
      "raan_deg": 240.1313,
      "arg_perigee_deg": 284.9053,
      "mean_anomaly_deg": 75.1612,
      "mean_motion_rev_day": 15.27590456
    }
  ]
}