{"fetched_at":"2026-03-29T16:36:15Z","count":15609,"tles":[{"name":"STARLINK-31535","line1":"1 59504U 24071W   26087.70282457  .00002701  00000+0  10760-3 0  9991","line2":"2 59504  43.0013 240.1313 0001679 284.9053  75.1612 15.27590456111025","category":"Starlink"}]}